[
  "FORMOSAT-2 (ROCSAT 2)   \r\n1 28254U 04018A   26178.54229814 -.00000218  00000+0 -11664-3 0  9996\r\n2 28254  98.8459 145.7076 0000988 331.4231 139.1707 14.01258766130202\r\n",
  "FORMOSAT-3 FM6          \r\n1 29047U 06011A   26178.51529772  .00000420  00000+0  17191-3 0  9999\r\n2 29047  71.9780 290.1792 0049406 221.4410 138.2977 14.31405747 55882\r\n",
  "FORMOSAT-3 FM1          \r\n1 29048U 06011B   26178.50917975  .00000336  00000+0  14094-3 0  9990\r\n2 29048  71.9642 198.5990 0042245 185.2000 174.8706 14.31396858 58259\r\n",
  "FORMOSAT-3 FM5          \r\n1 29049U 06011C   26178.55929703  .00000363  00000+0  15160-3 0  9993\r\n2 29049  72.0189  22.6846 0034162 191.5142 168.5218 14.31411421 54158\r\n",
  "FORMOSAT-3 FM3          \r\n1 29050U 06011D   26178.55001012  .00001044  00000+0  19275-3 0  9997\r\n2 29050  72.0141 289.8575 0044977 266.5532  93.0480 14.66979122 77899\r\n",
  "FORMOSAT-3 FM4          \r\n1 29051U 06011E   26178.51860742  .00000405  00000+0  16392-3 0  9994\r\n2 29051  72.0044 280.2945 0064337  72.1494 288.6648 14.31547551 56746\r\n",
  "FORMOSAT-3 FM2          \r\n1 29052U 06011F   26178.51691942  .00000385  00000+0  15861-3 0  9996\r\n2 29052  72.0330   1.1482 0038005 144.3731 215.9956 14.31624833 54269\r\n",
  "PACE                    \r\n1 40022U 14033N   26178.26247094  .00004951  00000+0  30134-3 0  9999\r\n2 40022  98.1234 183.7514 0006545 168.5478 191.5900 15.10915143654555\r\n",
  "FORMOSAT-5              \r\n1 42920U 17049A   26178.46635000  .00000152  00000+0  49620-4 0  9998\r\n2 42920  98.2253 253.5477 0012405  55.7614 304.4754 14.50902290468165\r\n",
  "FORMOSAT 7-3            \r\n1 44343U 19036E   26178.49343378  .00004449  00000+0  24686-3 0  9991\r\n2 44343  23.9983 107.5996 0000939  56.1456 303.9137 15.09865665384809\r\n",
  "FORMOSAT 7-1            \r\n1 44349U 19036L   26178.51515980  .00002727  00000+0  20802-3 0  9993\r\n2 44349  23.9993 322.7652 0000483 330.0340  30.0133 14.96548663386207\r\n",
  "FORMOSAT 7-4            \r\n1 44350U 19036M   26178.27098659  .00002906  00000+0  22342-3 0  9997\r\n2 44350  23.9998  26.5159 0000925 324.5810  35.4630 14.96539324385581\r\n",
  "FORMOSAT 7-2            \r\n1 44351U 19036N   26178.42668160  .00002561  00000+0  19383-3 0  9993\r\n2 44351  23.9984  79.7801 0000391 324.7939  35.2536 14.96537654385129\r\n",
  "FORMOSAT 7-6            \r\n1 44353U 19036Q   26178.49302322  .00002350  00000+0  17563-3 0  9991\r\n2 44353  23.9973 260.1514 0000879 201.8919 158.1544 14.96551078383364\r\n",
  "FORMOSAT 7-5            \r\n1 44358U 19036V   26177.73682216  .00002182  00000+0  16132-3 0  9999\r\n2 44358  23.9968 203.9978 0000066  42.2011 317.8495 14.96550190383789\r\n",
  "FORMOSAT-7R (TRITON)    \r\n1 58017U 23155B   26178.50631529  .00001666  00000+0  17359-3 0  9998\r\n2 58017  97.8356 259.8276 0002409  74.5382 285.6102 14.91146116147767\r\n",
  "NIGHTJAR                \r\n1 60535U 24149BV  26178.47182191  .00003223  00000+0  27036-3 0  9996\r\n2 60535  97.6833 255.0343 0000946 114.3842 245.7479 14.99066992144418\r\n",
  "IRIS-F3                 \r\n1 62619U 25009L   26178.47393786  .00006045  00000+0  22971-3 0  9999\r\n2 62619  97.4050 259.2344 0004800 289.0240  71.0478 15.27165890 80398\r\n",
  "IRIS-F2                 \r\n1 62684U 25009CD  26178.16254760  .00015947  00000+0  60512-3 0  9999\r\n2 62684  97.3898 257.8386 0004060 322.4805  37.6150 15.26923539137980\r\n",
  "FORMOSAT-8A             \r\n1 66666U 25276A   26178.47375162  .00001554  00000+0  12740-3 0  9992\r\n2 66666  97.6548 252.5643 0003543 203.6351 156.4711 15.00700519 31606\r\n",
  "LILIUM-2                \r\n1 66679U 25276P   26178.45693740  .00003089  00000+0  15508-3 0  9999\r\n2 66679  97.4153 251.2946 0005318 346.4033  13.7057 15.18022282 31956\r\n",
  "FLOCK 4H-5              \r\n1 66708U 25276AU  26178.43905176  .00005893  00000+0  27112-3 0  9998\r\n2 66708  97.4180 251.9827 0000789  93.9435 266.1890 15.20707771 31990\r\n",
  "BLACK KITE-1            \r\n1 66741U 25276CD  26178.44339385  .00008169  00000+0  37425-3 0  9996\r\n2 66741  97.4249 252.0154 0004313 325.1081  34.9872 15.20727563 29283\r\n",
  "T.MICROSAT-1            \r\n1 66766U 25276DE  26178.47165500  .00006398  00000+0  29226-3 0  9994\r\n2 66766  97.4165 252.0385 0002102 115.4785 244.6668 15.20921065 32008\r\n",
  "LILIUM-3                \r\n1 66770U 25276DJ  26178.16827147  .00003135  00000+0  15063-3 0  9997\r\n2 66770  97.4245 251.7617 0001696 165.1098 195.0187 15.19554832 31941\r\n",
  "T.MICROSAT-2            \r\n1 68433U 26067T   26178.41364490  .00005552  00000+0  28024-3 0  9995\r\n2 68433  97.4570 136.6309 0006900  42.1242 318.0521 15.17490681 13484\r\n",
  "PARUS-6U1               \r\n1 68456U 26067AS  26178.40868363  .00005906  00000+0  29678-3 0  9996\r\n2 68456  97.4552 136.6154 0006798  44.6983 315.4797 15.17621770 13482\r\n",
  "BLACK KITE-2            \r\n1 68474U 26067BL  26178.40441728  .00002271  00000+0  22600-3 0  9998\r\n2 68474  97.7546 136.5417 0001789 160.9434 199.1852 14.92625172 13253\r\n",
  "PEARL-1B                \r\n1 68980U 26100A   26178.44884498  .00002127  00000+0  22280-3 0  9991\r\n2 68980  97.7357  75.6121 0008757 108.6785 251.5385 14.90601668  8216\r\n",
  "PEARL-1A                \r\n1 68990U 26100L   26178.23193833  .00001668  00000+0  17418-3 0  9991\r\n2 68990  97.7305  75.4057 0006573 120.9526 239.2339 14.91006875  8199\r\n"
]